STARLINK-5496           
1 56886U 23083L   26070.37511263  .00079432  00000+0  57283-2 0  9993
2 56886  43.0000  72.6414 0001342 253.9965 106.0730 15.03191973151929
STARLINK-6180           
1 56887U 23083M   26070.31388920  .00000197  00000+0  29628-4 0  9996
2 56887  43.0036  73.0397 0001298 267.8477  92.2216 15.02532500151914
STARLINK-6181           
1 56888U 23083N   26070.36262736  .00001531  00000+0  12841-3 0  9999
2 56888  43.0034  72.5473 0001105 268.1634  91.9082 15.02526560151925
STARLINK-6169           
1 56889U 23083P   26070.37256894  .00004631  00000+0  35740-3 0  9996
2 56889  43.0076  72.6261 0001418 273.4394  86.6286 15.02566063151926
STARLINK-5528           
1 56890U 23083Q   26070.03133436 -.00000034  00000+0  12545-4 0  9990
2 56890  43.0030  74.3620 0000936 293.5389  66.5355 15.02532520151876
STARLINK-6213           
1 56891U 23083R   26070.43565013  .00013656  00000+0  10214-2 0  9997
2 56891  43.0036  72.2324 0001739 263.8423  96.2221 15.02632236151936
STARLINK-6219           
1 56892U 23083S   26070.35594424  .00000800  00000+0  74314-4 0  9997
2 56892  43.0034  72.4955 0001330 273.1146  86.9544 15.02537044151924
STARLINK-6216           
1 56893U 23083T   26070.36596513 -.00002699  00000+0 -18497-3 0  9999
2 56893  43.0040  72.5741 0001189 266.5286  93.5421 15.02510116152042
STARLINK-6144           
1 56894U 23083U   26070.35706791  .00003931  00000+0  30589-3 0  9994
2 56894  43.0022  72.5045 0001177 280.7613  79.3097 15.02536083152041
STARLINK-6208           
1 56895U 23083V   26070.28725292  .00006324  00000+0  48311-3 0  9995
2 56895  43.0041  72.8425 0001026 263.3193  96.7533 15.02509537151918
STARLINK-6202           
1 56896U 23083W   26070.08337563  .00000906  00000+0  82160-4 0  9995
2 56896  43.0039  73.8905 0001163 273.4719  86.5990 15.02532830151992
STARLINK-6200           
1 56897U 23083X   26070.35261747 -.00000370  00000+0 -12310-4 0  9993
2 56897  43.0025  72.4669 0001045 270.8498  89.2224 15.02535623152044
STARLINK-6205           
1 56898U 23083Y   26070.50003471  .00120400  00000+0  60960-2 0  9996
2 56898  43.0003  70.9010 0002016 295.1675 110.3997 15.15821640  5816
STARLINK-6203           
1 56899U 23083Z   26070.50003471  .01242182  00000+0  52367-1 0  9991
2 56899  43.0007  70.8311 0001545 294.5436 138.4977 15.19574820  5568
STARLINK-6207           
1 56900U 23083AA  26070.50003471  .00067275  00000+0  40002-2 0  9995
2 56900  43.0010  59.2228 0000809 311.5950 259.1952 15.10400411  5767
STARLINK-6185           
1 56901U 23083AB  26070.50003471  .00123343  00000+0  61951-2 0  9991
2 56901  43.0003  70.8578 0001892 301.3619 122.1269 15.16087815  5810
STARLINK-6195           
1 56902U 23083AC  26070.50003471  .00066082  00000+0  40914-2 0  9994
2 56902  43.0015  59.2642 0000854 317.3326 235.4615 15.08937446  5566
