[{"OBJECT_NAME":"STARLINK-5496","OBJECT_ID":"2023-083L","EPOCH":"2026-03-11T09:00:09.731232","MEAN_MOTION":15.03191973,"ECCENTRICITY":0.0001342,"INCLINATION":43,"RA_OF_ASC_NODE":72.6414,"ARG_OF_PERICENTER":253.9965,"MEAN_ANOMALY":106.073,"EPHEMERIS_TYPE":0,"CLASSIFICATION_TYPE":"U","NORAD_CAT_ID":56886,"ELEMENT_SET_NO":999,"REV_AT_EPOCH":15192,"BSTAR":0.0057283,"MEAN_MOTION_DOT":0.00079432,"MEAN_MOTION_DDOT":0},{"OBJECT_NAME":"STARLINK-6180","OBJECT_ID":"2023-083M","EPOCH":"2026-03-11T07:32:00.026880","MEAN_MOTION":15.025325,"ECCENTRICITY":0.0001298,"INCLINATION":43.0036,"RA_OF_ASC_NODE":73.0397,"ARG_OF_PERICENTER":267.8477,"MEAN_ANOMALY":92.2216,"EPHEMERIS_TYPE":0,"CLASSIFICATION_TYPE":"U","NORAD_CAT_ID":56887,"ELEMENT_SET_NO":999,"REV_AT_EPOCH":15191,"BSTAR":2.9628e-5,"MEAN_MOTION_DOT":1.97e-6,"MEAN_MOTION_DDOT":0},{"OBJECT_NAME":"STARLINK-6181","OBJECT_ID":"2023-083N","EPOCH":"2026-03-11T08:42:11.003904","MEAN_MOTION":15.0252656,"ECCENTRICITY":0.0001105,"INCLINATION":43.0034,"RA_OF_ASC_NODE":72.5473,"ARG_OF_PERICENTER":268.1634,"MEAN_ANOMALY":91.9082,"EPHEMERIS_TYPE":0,"CLASSIFICATION_TYPE":"U","NORAD_CAT_ID":56888,"ELEMENT_SET_NO":999,"REV_AT_EPOCH":15192,"BSTAR":0.00012841,"MEAN_MOTION_DOT":1.531e-5,"MEAN_MOTION_DDOT":0},{"OBJECT_NAME":"STARLINK-6169","OBJECT_ID":"2023-083P","EPOCH":"2026-03-11T08:56:29.956416","MEAN_MOTION":15.02566063,"ECCENTRICITY":0.0001418,"INCLINATION":43.0076,"RA_OF_ASC_NODE":72.6261,"ARG_OF_PERICENTER":273.4394,"MEAN_ANOMALY":86.6286,"EPHEMERIS_TYPE":0,"CLASSIFICATION_TYPE":"U","NORAD_CAT_ID":56889,"ELEMENT_SET_NO":999,"REV_AT_EPOCH":15192,"BSTAR":0.0003574,"MEAN_MOTION_DOT":4.631e-5,"MEAN_MOTION_DDOT":0},{"OBJECT_NAME":"STARLINK-5528","OBJECT_ID":"2023-083Q","EPOCH":"2026-03-11T00:45:07.288704","MEAN_MOTION":15.0253252,"ECCENTRICITY":9.363e-5,"INCLINATION":43.003,"RA_OF_ASC_NODE":74.362,"ARG_OF_PERICENTER":293.5389,"MEAN_ANOMALY":66.5355,"EPHEMERIS_TYPE":0,"CLASSIFICATION_TYPE":"U","NORAD_CAT_ID":56890,"ELEMENT_SET_NO":999,"REV_AT_EPOCH":15187,"BSTAR":1.2544812e-5,"MEAN_MOTION_DOT":-3.4e-7,"MEAN_MOTION_DDOT":0},{"OBJECT_NAME":"STARLINK-6213","OBJECT_ID":"2023-083R","EPOCH":"2026-03-11T10:27:20.171232","MEAN_MOTION":15.02632236,"ECCENTRICITY":0.0001739,"INCLINATION":43.0036,"RA_OF_ASC_NODE":72.2324,"ARG_OF_PERICENTER":263.8423,"MEAN_ANOMALY":96.2221,"EPHEMERIS_TYPE":0,"CLASSIFICATION_TYPE":"U","NORAD_CAT_ID":56891,"ELEMENT_SET_NO":999,"REV_AT_EPOCH":15193,"BSTAR":0.0010214,"MEAN_MOTION_DOT":0.00013656,"MEAN_MOTION_DDOT":0},{"OBJECT_NAME":"STARLINK-6219","OBJECT_ID":"2023-083S","EPOCH":"2026-03-11T08:32:33.582336","MEAN_MOTION":15.02537044,"ECCENTRICITY":0.000133,"INCLINATION":43.0034,"RA_OF_ASC_NODE":72.4955,"ARG_OF_PERICENTER":273.1146,"MEAN_ANOMALY":86.9544,"EPHEMERIS_TYPE":0,"CLASSIFICATION_TYPE":"U","NORAD_CAT_ID":56892,"ELEMENT_SET_NO":999,"REV_AT_EPOCH":15192,"BSTAR":7.4314e-5,"MEAN_MOTION_DOT":8.0e-6,"MEAN_MOTION_DDOT":0},{"OBJECT_NAME":"STARLINK-6216","OBJECT_ID":"2023-083T","EPOCH":"2026-03-11T08:46:59.387232","MEAN_MOTION":15.02510116,"ECCENTRICITY":0.0001189,"INCLINATION":43.004,"RA_OF_ASC_NODE":72.5741,"ARG_OF_PERICENTER":266.5286,"MEAN_ANOMALY":93.5421,"EPHEMERIS_TYPE":0,"CLASSIFICATION_TYPE":"U","NORAD_CAT_ID":56893,"ELEMENT_SET_NO":999,"REV_AT_EPOCH":15204,"BSTAR":-0.00018497,"MEAN_MOTION_DOT":-2.699e-5,"MEAN_MOTION_DDOT":0},{"OBJECT_NAME":"STARLINK-6144","OBJECT_ID":"2023-083U","EPOCH":"2026-03-11T08:34:10.667424","MEAN_MOTION":15.02536083,"ECCENTRICITY":0.0001177,"INCLINATION":43.0022,"RA_OF_ASC_NODE":72.5045,"ARG_OF_PERICENTER":280.7613,"MEAN_ANOMALY":79.3097,"EPHEMERIS_TYPE":0,"CLASSIFICATION_TYPE":"U","NORAD_CAT_ID":56894,"ELEMENT_SET_NO":999,"REV_AT_EPOCH":15204,"BSTAR":0.00030589,"MEAN_MOTION_DOT":3.931e-5,"MEAN_MOTION_DDOT":0},{"OBJECT_NAME":"STARLINK-6208","OBJECT_ID":"2023-083V","EPOCH":"2026-03-11T06:53:38.652288","MEAN_MOTION":15.02509537,"ECCENTRICITY":0.0001026,"INCLINATION":43.0041,"RA_OF_ASC_NODE":72.8425,"ARG_OF_PERICENTER":263.3193,"MEAN_ANOMALY":96.7533,"EPHEMERIS_TYPE":0,"CLASSIFICATION_TYPE":"U","NORAD_CAT_ID":56895,"ELEMENT_SET_NO":999,"REV_AT_EPOCH":15191,"BSTAR":0.00048311,"MEAN_MOTION_DOT":6.324e-5,"MEAN_MOTION_DDOT":0},{"OBJECT_NAME":"STARLINK-6202","OBJECT_ID":"2023-083W","EPOCH":"2026-03-11T02:00:03.654432","MEAN_MOTION":15.0253283,"ECCENTRICITY":0.00011638,"INCLINATION":43.0039,"RA_OF_ASC_NODE":73.8905,"ARG_OF_PERICENTER":273.4719,"MEAN_ANOMALY":86.599,"EPHEMERIS_TYPE":0,"CLASSIFICATION_TYPE":"U","NORAD_CAT_ID":56896,"ELEMENT_SET_NO":999,"REV_AT_EPOCH":15199,"BSTAR":8.2159866e-5,"MEAN_MOTION_DOT":9.06e-6,"MEAN_MOTION_DDOT":0},{"OBJECT_NAME":"STARLINK-6200","OBJECT_ID":"2023-083X","EPOCH":"2026-03-11T08:27:46.149408","MEAN_MOTION":15.02535623,"ECCENTRICITY":0.0001045,"INCLINATION":43.0025,"RA_OF_ASC_NODE":72.4669,"ARG_OF_PERICENTER":270.8498,"MEAN_ANOMALY":89.2224,"EPHEMERIS_TYPE":0,"CLASSIFICATION_TYPE":"U","NORAD_CAT_ID":56897,"ELEMENT_SET_NO":999,"REV_AT_EPOCH":15204,"BSTAR":-1.231e-5,"MEAN_MOTION_DOT":-3.7e-6,"MEAN_MOTION_DDOT":0},{"OBJECT_NAME":"STARLINK-6205","OBJECT_ID":"2023-083Y","EPOCH":"2026-03-11T12:00:02.998944","MEAN_MOTION":15.1582164,"ECCENTRICITY":0.0002016,"INCLINATION":43.0003,"RA_OF_ASC_NODE":70.901,"ARG_OF_PERICENTER":295.1675,"MEAN_ANOMALY":110.3997,"EPHEMERIS_TYPE":0,"CLASSIFICATION_TYPE":"U","NORAD_CAT_ID":56898,"ELEMENT_SET_NO":999,"REV_AT_EPOCH":581,"BSTAR":0.006096,"MEAN_MOTION_DOT":0.001204,"MEAN_MOTION_DDOT":0},{"OBJECT_NAME":"STARLINK-6203","OBJECT_ID":"2023-083Z","EPOCH":"2026-03-11T12:00:02.998944","MEAN_MOTION":15.1957482,"ECCENTRICITY":0.0001545,"INCLINATION":43.0007,"RA_OF_ASC_NODE":70.8311,"ARG_OF_PERICENTER":294.5436,"MEAN_ANOMALY":138.4977,"EPHEMERIS_TYPE":0,"CLASSIFICATION_TYPE":"U","NORAD_CAT_ID":56899,"ELEMENT_SET_NO":999,"REV_AT_EPOCH":556,"BSTAR":0.052367,"MEAN_MOTION_DOT":0.01242182,"MEAN_MOTION_DDOT":0},{"OBJECT_NAME":"STARLINK-6207","OBJECT_ID":"2023-083AA","EPOCH":"2026-03-11T12:00:02.998944","MEAN_MOTION":15.10400411,"ECCENTRICITY":8.09e-5,"INCLINATION":43.001,"RA_OF_ASC_NODE":59.2228,"ARG_OF_PERICENTER":311.595,"MEAN_ANOMALY":259.1952,"EPHEMERIS_TYPE":0,"CLASSIFICATION_TYPE":"U","NORAD_CAT_ID":56900,"ELEMENT_SET_NO":999,"REV_AT_EPOCH":576,"BSTAR":0.0040002,"MEAN_MOTION_DOT":0.00067275,"MEAN_MOTION_DDOT":0},{"OBJECT_NAME":"STARLINK-6185","OBJECT_ID":"2023-083AB","EPOCH":"2026-03-11T12:00:02.998944","MEAN_MOTION":15.16087815,"ECCENTRICITY":0.0001892,"INCLINATION":43.0003,"RA_OF_ASC_NODE":70.8578,"ARG_OF_PERICENTER":301.3619,"MEAN_ANOMALY":122.1269,"EPHEMERIS_TYPE":0,"CLASSIFICATION_TYPE":"U","NORAD_CAT_ID":56901,"ELEMENT_SET_NO":999,"REV_AT_EPOCH":581,"BSTAR":0.0061951,"MEAN_MOTION_DOT":0.00123343,"MEAN_MOTION_DDOT":0},{"OBJECT_NAME":"STARLINK-6195","OBJECT_ID":"2023-083AC","EPOCH":"2026-03-11T12:00:02.998944","MEAN_MOTION":15.08937446,"ECCENTRICITY":8.54e-5,"INCLINATION":43.0015,"RA_OF_ASC_NODE":59.2642,"ARG_OF_PERICENTER":317.3326,"MEAN_ANOMALY":235.4615,"EPHEMERIS_TYPE":0,"CLASSIFICATION_TYPE":"U","NORAD_CAT_ID":56902,"ELEMENT_SET_NO":999,"REV_AT_EPOCH":556,"BSTAR":0.0040914,"MEAN_MOTION_DOT":0.00066082,"MEAN_MOTION_DDOT":0}]
